INTELSAT 23 (IS-23)     
1 38867U 12057A   26191.06250187 -.00000273  00000+0  00000+0 0  9996
2 38867   0.0141  34.5412 0000462 184.3558  38.5923  1.00269710 50185
FM-6                    
1 39360U 13058A   26191.54386413 -.00000006  00000+0  00000+0 0  9996
2 39360   0.0174  39.3029 0001280 137.9736 190.6257  1.00269783 46307
INTELSAT 30 (IS-30)     
1 40271U 14062A   26191.26289811 -.00000140  00000+0  00000+0 0  9997
2 40271   0.0192  51.4260 0001237 336.2755 260.0814  1.00271243  7020
DIRECTV 14              
1 40333U 14078B   26191.62530064 -.00000116  00000+0  00000+0 0  9995
2 40333   0.0097  22.1783 0000268 296.2025  96.0342  1.00269904 42276
DIRECTV 15              
1 40663U 15026A   26191.47523333 -.00000093  00000+0  00000+0 0  9993
2 40663   0.0194  72.3901 0000111 163.9672 120.2514  1.00272881 40697
SKY MEXICO-1            
1 40664U 15026B   26191.55131750 -.00000224  00000+0  00000+0 0  9997
2 40664   0.0052  42.6285 0002300  91.7989 273.7228  1.00271340 40681
INTELSAT 34 (IS-34)     
1 40874U 15039A   26191.05688244 -.00000274  00000+0  00000+0 0  9999
2 40874   0.0101  16.1720 0000122 324.1781 272.6171  1.00270657 39865
INTELSAT 31 (IS-31)     
1 41581U 16035A   26191.26289811 -.00000140  00000+0  00000+0 0  9994
2 41581   0.0186 278.5787 0001013 347.5471  21.6525  1.00271183 36919
INTELSAT 36 (IS-36)     
1 41747U 16053A   26191.17525213 -.00000013  00000+0  00000+0 0  9996
2 41747   0.0102 354.9716 0002514 346.8192  77.8966  1.00268599 36189
INTELSAT 32E (IS-32E)   
1 41945U 17007B   26191.13065417  .00000000  00000+0  00000+0 0  9992
2 41945   0.0258  33.0821 0000341 235.9737  22.8541  1.00267562 34458
INTELSAT 35E (IS-35E)   
1 42818U 17041A   26191.48875340 -.00000228  00000+0  00000+0 0  9995
2 42818   0.0032 111.0474 0001571 358.6024 320.2234  1.00270458 33043
INTELSAT 37E (IS-37E)   
1 42950U 17059A   26191.42076866 -.00000131  00000+0  00000+0 0  9994
2 42950   0.0177  47.3723 0002523  69.5596 304.8910  1.00270770 32290
AZERSPACE 2 (IS-38)     
1 43632U 18074A   26191.57584428  .00000000  00000+0  00000+0 0  9998
2 43632   0.0262  31.9142 0001204  92.5801  56.4227  1.00270567 28680
HORIZONS-3E             
1 43633U 18074B   26190.81617841 -.00000018  00000+0  00000+0 0  9991
2 43633   0.0363 213.3135 0000781  67.3154 109.9513  1.00272318 28566
AT&T T-16               
1 44333U 19034A   26190.90528495 -.00000103  00000+0  00000+0 0  9997
2 44333   0.0147  67.1818 0000718 252.0909 193.6074  1.00271911 25868
INTELSAT 39 (IS-39)     
1 44476U 19049B   26191.61086194  .00000000  00000+0  00000+0 0  9990
2 44476   0.0260  33.2776 0000909 285.7351 251.3790  1.00270540 25364
GALAXY 30 (G-30)        
1 46114U 20056C   26191.63493071  .00000000  00000+0  00000+0 0  9999
2 46114   0.0273  37.5583 0001921  75.5966 278.9728  1.00270453 21527
GALAXY 33 (G-33)        
1 54026U 22128A   26191.63768119  .00000088  00000+0  00000+0 0  9996
2 54026   0.0156  15.8890 0001783 101.2656 267.9683  1.00270725 13977
GALAXY 34 (G-34)        
1 54027U 22128B   26191.63630854  .00000068  00000+0  00000+0 0  9999
2 54027   0.0116  33.6569 0001458  82.9540 272.0146  1.00271762 14144
GALAXY 31 (G-31)        
1 54243U 22153A   26191.63355928  .00000000  00000+0  00000+0 0  9999
2 54243   0.0206  47.1412 0000922  76.2843 272.2042  1.00269885  7364
GALAXY 32 (G-32)        
1 54244U 22153B   26191.26376478 -.00000163  00000+0  00000+0 0  9993
2 54244   0.0095  29.5174 0001507  17.2587 245.3708  1.00271315 13379
GALAXY 35 (G-35)        
1 54741U 22170A   26191.62252681  .00000000  00000+0  00000+0 0  9992
2 54741   0.0172  35.5452 0001858  80.5584 303.4466  1.00269569 13120
GALAXY 36 (G-36)        
1 54742U 22170B   26191.54923749 -.00000175  00000+0  00000+0 0  9998
2 54742   0.0266 116.6909 0002406 342.5107 297.9972  1.00271449 13001
GALAXY 37 (G-37)        
1 57493U 23112A   26191.63561995  .00000058  00000+0  00000+0 0  9991
2 57493   0.0119  61.5505 0001778  53.2194 275.6072  1.00270423 10773
